,address,city,zip,State
0,1416 34TH AVE,seattle,98122.0,WA
1,3222 MCGRAW ST W A,seattle,98199.0,WA
12,6413 ROOSEVELT WAY NE ,seattle,98115.0,WA
21,1900 W NICKERSON ST #108,seattle,98119.0,WA
22,1900 W NICKERSON ST STE 102,seattle,98119.0,WA
39,700 3RD AVE ,seattle,98104.0,WA
49,1805 QUEEN ANNE AVE N #100,seattle,98109.0,WA
55,316 VIRGINIA ST ,seattle,98121.0,WA
64,4822 CALIFORNIA AVE SW,seattle,98116.0,WA
77,4213 SW COLLEGE ST,seattle,98116.0,WA
81,1604 N 34TH ST ,seattle,98103.0,WA
87,1314 S JACKSON ST ,seattle,98144.0,WA
98,1933 1ST AVE ,seattle,98101.0,WA
107,2715 E CHERRY ST #B,seattle,98122.0,WA
117,701 5TH AVE ,seattle,98104.0,WA
123,2200 WESTLAKE AVE ,seattle,98121.0,WA
133,2701 E MADISON ST,seattle,98112.0,WA
140,2805 E MADISON ST ,seattle,98112.0,WA
150,7850 GREENLAKE DR N ,seattle,98103.0,WA
162,420 BROADWAY AVE E ,seattle,98102.0,WA
166,1415 NW 70TH ST,seattle,98117.0,WA
174,1435 1ST AVE ,seattle,98101.0,WA
186,2121 QUEEN ANNE AVE N ,seattle,98109.0,WA
200,2616 2ND AVE ,seattle,98121.0,WA
203,615 S KING ST ,seattle,98104.0,WA
207,7311 AURORA AVE N ,seattle,98103.0,WA
219,89 UNIVERSITY ST,seattle,98101.0,WA
223,12325 30TH AVE NE ,seattle,98125.0,WA
233,6540 CALIFORNIA AVE SW ,seattle,98136.0,WA
237,401 WESTLAKE AVE N,seattle,98109.0,WA
241,11805 RENTON AVE S ,seattle,98178.0,WA
250,851 NW 85TH ST ,seattle,98117.0,WA
260,14553 BOTHELL WAY NE ,shoreline,98155.0,WA
269,509 15TH AVE E ,seattle,98112.0,WA
281,1614 W DRAVUS ST,seattle,98119.0,WA
288,7500 35TH AVE NE ,seattle,98115.0,WA
297,4100 BEACH DR SW ,seattle,98116.0,WA
309,1830 MINOR AVE,seattle,98101.0,WA
316,340 WESTLAKE AVE N ,seattle,98109.0,WA
326,41 DRAVUS ST ,seattle,98109.0,WA
334,350 15TH AVE E ,seattle,98112.0,WA
346,1010 MADISON ST ,seattle,98104.0,WA
349,2605 E CHERRY ST ,seattle,98122.0,WA
360,14340 15TH AVE NE ,seattle,98125.0,WA
367,2020 WESTERN AVE ,seattle,98121.0,WA
376,8420 GREENWOOD AVE N,seattle,98103.0,WA
378,2968 EASTLAKE AVE,seattle,98102.0,WA
382,2228 2ND AVE,seattle,98121.0,WA
383,93 PIKE ST ,seattle,98101.0,WA
391,401 NE NORTHGATE WAY ,seattle,98125.0,WA
392,401 NE NORTHGATE WAY 1102,seattle,98125.0,WA
409,8617 35TH AVE NE ,seattle,98115.0,WA
417,6459 CALIFORNIA AVE SW ,seattle,98136.0,WA
425,1414 NE 42ND ST #103B,seattle,98105.0,WA
431,170 S KING ST ,seattle,98104.0,WA
441,9452 35TH AVE SW ,seattle,98126.0,WA
446,526 QUEEN ANNE AVE N,seattle,98109.0,WA
447,5807 4TH AVE S,seattle,98108.0,WA
455,4920 S GENESEE ST,seattle,98118.0,WA
463,2323 2ND AVE ,seattle,98121.0,WA
467,469 N 36TH ST #A,seattle,98103.0,WA
468,6100 ROOSEVELT WAY NE ,seattle,98115.0,WA
480,1411 4TH AVE ,seattle,98101.0,WA
490,308 N 125TH ST,seattle,98133.0,WA
500,5963 CORSON AVE S,seattle,98108.0,WA
505,4003 STONE WAY N ,seattle,98103.0,WA
515,1120 HOWELL ST,seattle,98101.0,WA
522,1430 HARVARD AVE 20 ,seattle,98122.0,WA
534,4539 CALIFORNIA AVE SW ,seattle,98116.0,WA
546,140 4TH AVE N 130,seattle,98109.0,WA
557,9000 RAINIER AVE S ,seattle,98118.0,WA
561,2123 N 40TH ST,seattle,98103.0,WA
570,7520 35TH AVE NE,seattle,98115.0,WA
576,4914 RAINIER AVE S ,seattle,98118.0,WA
588,1420 5TH AVE ,seattle,98101.0,WA
599,6015 PHINNEY AVE N ,seattle,98103.0,WA
609,324 BROADWAY E ,seattle,98102.0,WA
614,1001 ALASKAN WAY ,seattle,98104.0,WA
626,4559 UNIVERSITY WAY NE ,seattle,98105.0,WA
637,6058 CALIFORNIA AVE SW ,seattle,98136.0,WA
642,4537 UNIVERSITY WAY NE,seattle,98105.0,WA
649,1920 DEXTER AVE N ,seattle,98109.0,WA
656,2305 NW MARKET ST,seattle,98107.0,WA
658,5602 1ST AVE S,seattle,98108.0,WA
670,403 15TH AVE E,seattle,98112.0,WA
671,2901 NE BLAKELEY ST ,seattle,98105.0,WA
685,1531 MELROSE AVE E #-6,seattle,98122.0,WA
691,658 S JACKSON ST,seattle,98104.0,WA
697,2746 NE 45TH ST ,seattle,98105.0,WA
709,9208 HOLMAN RD NW ,seattle,98117.0,WA
722,519 1ST AVE N,seattle,98109.0,WA
723,4207 UNIVERSITY WAY NE,seattle,98105.0,WA
735,2425 33RD AVE W ,seattle,98199.0,WA
747,1618 1/2 N 45TH ST ,seattle,98103.0,WA
752,3221 W MCGRAW ST ,seattle,98199.0,WA
757,6106 ROOSEVELT WAY NE ,seattle,98115.0,WA
769,999 3RD AVE,seattle,98104.0,WA
780,1220 HOWELL ST ,seattle,98101.0,WA
785,600 University ST,seattle,98101.0,WA
791,850 NW 85TH ST ,seattle,98117.0,WA
792,1520 4TH AVE ,seattle,98101.0,WA
801,4860 BEACON AVE S,seattle,98108.0,WA
811,5307 BALLARD AVE NW,seattle,98107.0,WA
818,5405 BALLARD AVE NW ,seattle,98107.0,WA
829,5606 1ST AVE S,seattle,98108.0,WA
839,200 PIKE ST ,seattle,98101.0,WA
849,7115 WOODLAWN AVE NE,seattle,98115.0,WA
859,4220 E MADISON ST ,seattle,98112.0,WA
871,7300 RAINIER AVE S,seattle,98118.0,WA
874,3719 NE 45TH ST ,seattle,98105.0,WA
876,5501 30TH AVE NE ,seattle,98105.0,WA
888,6711 GREENWOOD AVE N ,seattle,98103.0,WA
900,805 S 112TH ST,seattle,98168.0,WA
904,2501 4TH AVE ,seattle,98121.0,WA
910,2762 4TH AVE S ,seattle,98134.0,WA
927,8014 LAKE CITY WAY NE STE C,seattle,98115.0,WA
931,1511 7TH AVE ,seattle,98101.0,WA
932,13754 AURORA AVE N #D,seattle,98133.0,WA
933,10055 16TH AVE SW ,seattle,98146.0,WA
936,1530 POST ALY #B,seattle,98101.0,WA
947,7902 35TH AVE SW,seattle,98126.0,WA
951,4130 ROOSEVELT WAY NE ,seattle,98105.0,WA
965,1530 3RD AVE,seattle,98101.0,WA
973,1507 QUEEN ANNE AVE N ,seattle,98109.0,WA
981,8515 35TH AVE NE ,seattle,98115.0,WA
992,1517 PIKE PL,seattle,98101.0,WA
1003,809 FAIRVIEW PL N ,seattle,98109.0,WA
1013,11730 PINEHURST WAY NE ,seattle,98125.0,WA
1015,1718 N 45TH ST,seattle,98103.0,WA
1024,17535 BALLINGER WAY NE ,lake forest park,98155.0,WA
1031,1940 1ST AVE S,seattle,98134.0,WA
1034,8519 15TH AVE NW ,seattle,98117.0,WA
1043,810 E ROY ST ,seattle,98102.0,WA
1054,5517 ROOSEVELT WAY NE ,seattle,98105.0,WA
1067,2801 WESTERN AVE #B,seattle,98121.0,WA
1072,8518 GREENWOOD AVE N ,seattle,98103.0,WA
1083,1514 PIKE PL ,seattle,98101.0,WA
1084,118 CHERRY ST ,seattle,98104.0,WA
1092,4559 CALIFORNIA AVE SW ,seattle,98116.0,WA
1105,1919 S JACKSON ST,seattle,98144.0,WA
1116,6415 8TH AVE NW ,seattle,98107.0,WA
1121,4910 Leary AVE NW,seattle,98107.0,WA
1128,5300 15TH AVE NW,seattle,98107.0,WA
1138,10003 RAINIER AVE S,seattle,98118.0,WA
1146,5903 1ST AVE S,seattle,98108.0,WA
1150,6417 ROOSEVELT WAY NE STE 201,seattle,98115.0,WA
1158,6615 E MARGINAL WAY S ,seattle,98108.0,WA
1168,806 NW 85TH ST ,seattle,98117.0,WA
1178,424 MAYNARD AVE S,seattle,98104.0,WA
1179,823 3RD AVE #105,seattle,98104.0,WA
1180,1412 HARVARD AVE,seattle,98122.0,WA
1186,200 ROY ST 104,seattle,98109.0,WA
1192,1207 S JACKSON ST ,seattle,98144.0,WA
1204,235 BROADWAY AVE E ,seattle,98102.0,WA
1214,600 PINE ST STE 405,seattle,98101.0,WA
1215,1213 MADISON ST ,seattle,98104.0,WA
1222,1530 POST ALY #3A,seattle,98101.0,WA
1223,2108 NE 65TH ST,seattle,98115.0,WA
1234,1514 PIKE PL #8,seattle,98101.0,WA
1237,526 2ND AVE ,seattle,98104.0,WA
1248,4743 BALLARD AVE NW #1B,seattle,98107.0,WA
1253,1415 1ST AVE ,seattle,98101.0,WA
1261,9808 14TH AVE SW,seattle,98106.0,WA
1269,401 NE NORTHGATE WAY,seattle,98125.0,WA
1272,401 NE NORTHGATE WAY #418,seattle,98125.0,WA
1275,2040 WESTLAKE AVE N ,seattle,98109.0,WA
1287,4543 UNIVERSITY WAY NE ,seattle,98105.0,WA
1303,2801 ALASKAN WAY,seattle,98121.0,WA
1305,81 PIKE ST ,seattle,98101.0,WA
1314,100 4TH AVE N,seattle,98109.0,WA
1323,2408 NW 80TH ST ,seattle,98117.0,WA
1324,2901 E MADISON ST ,seattle,98112.0,WA
1333,500 QUEEN ANNE AVE N ,seattle,98109.0,WA
1343,10230 16TH AVE SW ,seattle,98146.0,WA
1345,6417 LATONA AVE NE ,seattle,98115.0,WA
1351,2666 ALKI AVE SW,seattle,98116.0,WA
1364,1112 PIKE ST,seattle,98101.0,WA
1366,3220 S HUDSON ST,seattle,98118.0,WA
1372,8501 5TH AVE NE ,seattle,98115.0,WA
1384,1221 E PIKE ST ,seattle,98122.0,WA
1395,8523 GREENWOOD AVE N ,seattle,98103.0,WA
1406,925 4TH AVE ,seattle,98104.0,WA
1414,12354 15TH AVE NE STE C,seattle,98125.0,WA
1418,1117 12TH AVE ,seattle,98122.0,WA
1430,1321 1ST AVE,seattle,98101.0,WA
1437,12248 AURORA AVE N STE B,seattle,98133.0,WA
1440,4213 UNIVERSITY WAY NE ,seattle,98105.0,WA
1452,4116 UNIVERSITY WAY NE ,seattle,98105.0,WA
1465,1200 S JACKSON ST ,seattle,98144.0,WA
1475,4720 CALIFORNIA AVE SW ,seattle,98116.0,WA
1486,4735 UNIVERSITY WAY NE ,seattle,98105.0,WA
1497,4749 UNIVERSITY WAY NE ,seattle,98105.0,WA
1501,622 1ST AVE N ,seattle,98109.0,WA
1511,8310 5TH AVE NE ,seattle,98115.0,WA
1513,2320 N 45TH ST,seattle,98103.0,WA
1519,719 E PIKE ST,seattle,98122.0,WA
1521,2207 NE 65TH ST,seattle,98115.0,WA
1525,1721 1ST AVE S ,seattle,98134.0,WA
1533,916 E JOHN ST ,seattle,98102.0,WA
1542,5210 UNIVERSITY WAY NE,seattle,98105.0,WA
1543,3427 RAINIER AVE S ,seattle,98144.0,WA
1552,2600 1ST AVE ,seattle,98121.0,WA
1562,100 4TH AVE N #120,seattle,98109.0,WA
1564,13242 AURORA AVE N #105,seattle,98133.0,WA
1567,9025 25TH AVE SW,seattle,98126.0,WA
1568,2026 NW MARKET ST,seattle,98107.0,WA
1570,345 15TH AVE E ,seattle,98112.0,WA
1572,4008 NE 55TH ST ,seattle,98105.0,WA
1580,520 S JACKSON ST ,seattle,98104.0,WA
1586,2681 NE UNIVERSITY VILLAGE ST,seattle,98105.0,WA
1588,1521 MELROSE AVE,seattle,98122.0,WA
1591,6261 13TH AVE S,seattle,98108.0,WA
1602,2853 NW MARKET ST ,seattle,98107.0,WA
1611,9627 15TH AVE SW,seattle,98106.0,WA
1616,4300 LEARY WAY NW ,seattle,98107.0,WA
1624,6119 PHINNEY AVE N ,seattle,98103.0,WA
1636,6012 PHINNEY AVE N ,seattle,98103.0,WA
1647,2445 4TH AVE S ,seattle,98134.0,WA
1657,432 BROADWAY AVE E ,seattle,98102.0,WA
1667,617 BROADWAY AVE E,seattle,98102.0,WA
1668,446 TERRY AVE N,seattle,98109.0,WA
1669,4005 AIRPORT WAY S,seattle,98108.0,WA
1670,3526 FREMONT PL N,seattle,98103.0,WA
1675,1200 3rd AVE #110,seattle,98101.0,WA
1678,9749 HOLMAN RD NW ,seattle,98117.0,WA
1691,1608 N 45TH ST ,seattle,98103.0,WA
1699,700 5TH AVE #602,seattle,98104.0,WA
1702,4922 S GENESEE ST ,seattle,98118.0,WA
1713,501 SENECA ST ,seattle,98101.0,WA
1720,83 SPRING ST ,seattle,98104.0,WA
1730,1916 POST ALY ,seattle,98101.0,WA
1741,1420 5TH AVE #203,seattle,98101.0,WA
1747,1224 1ST AVE,seattle,98101.0,WA
1753,4401 WALLINGFORD AVE N ,seattle,98103.0,WA
1765,2401 NW Market ST,seattle,98107.0,WA
1771,86 PINE ST,seattle,98101.0,WA
1780,7016 E MARGINAL WAY S,seattle,98108.0,WA
1781,9304 RAINIER AVE S,seattle,98118.0,WA
1782,11064 LAKE CITY WAY NE ,seattle,98125.0,WA
1794,2621 5TH AVE ,seattle,98121.0,WA
1795,4307 FREMONT AVE N ,seattle,98103.0,WA
1798,1410 NE 40TH ST,seattle,98105.0,WA
1809,8855 9TH AVE SW,seattle,98106.0,WA
1817,701 5TH AVE 111,seattle,98104.0,WA
1821,701 5TH AVE #110,seattle,98104.0,WA
1822,11546 15TH AVE NE ,seattle,98125.0,WA
1828,11546 15TH AVE NE,seattle,98125.0,WA
1833,5146 25TH AVE NE,seattle,98105.0,WA
1842,4719 CALIFORNIA AVE SW,seattle,98116.0,WA
1855,2008 NW 56TH ST,seattle,98107.0,WA
1858,4226 UNIVERSITY WAY NE ,seattle,98105.0,WA
1871,400 N 35TH ST ,seattle,98103.0,WA
1884,12526 LAKE CITY WAY NE,seattle,98125.0,WA
1885,2230 1ST AVE ,seattle,98121.0,WA
1895,4141 UNIVERSITY WAY NE,seattle,98105.0,WA
1903,1902 PIKE PL,seattle,98101.0,WA
1915,823 5TH AVE N ,seattle,98109.0,WA
1924,4505 39TH AVE SW ,seattle,98126.0,WA
1929,13520 AURORA AVE N ,seattle,98133.0,WA
1937,103 YESLER WAY,seattle,98104.0,WA
1939,1612 N 45TH ST,seattle,98103.0,WA
1945,3756 RAINIER AVE S #A,seattle,98144.0,WA
1952,2322 1ST AVE ,seattle,98121.0,WA
1956,9400 35TH AVE NE ,seattle,98115.0,WA
1963,102 1ST AVE S,seattle,98104.0,WA
1967,4759 BROOKLYN AVE NE ,seattle,98105.0,WA
1978,5315 BALLARD AVE NW ,seattle,98107.0,WA
1992,401 NE NORTHGATE WAY #463,seattle,98125.0,WA
1994,999 NW LEARY WAY ,seattle,98107.0,WA
1997,1001 4TH AVE #510,seattle,98104.0,WA
1998,1111 3RD AVE #1,seattle,98101.0,WA
1999,4721 CALIFORNIA AVE SW ,seattle,98116.0,WA
2012,3920 STONE WAY N,seattle,98103.0,WA
2013,309 NE 45TH ST ,seattle,98105.0,WA
2026,2123 QUEEN ANNE AVE N ,seattle,98109.0,WA
2029,1316 NE 43RD ST ,seattle,98105.0,WA
2041,3520 SW GENESEE ST ,seattle,98126.0,WA
2052,3200 15TH AVE W ,seattle,98119.0,WA
2055,2576 AURORA AVE N ,seattle,98109.0,WA
2064,4301 INTERLAKE AVE N ,seattle,98103.0,WA
2069,14356 AURORA AVE N ,seattle,98133.0,WA
2081,823 3RD AVE,seattle,98104.0,WA
2082,823 3RD AVE ,seattle,98104.0,WA
2099,5605 DELRIDGE WAY SW,seattle,98106.0,WA
2104,1519 PIKE PL,seattle,98101.0,WA
2115,12343 LAKE CITY WAY NE ,seattle,98125.0,WA
2127,516 15TH AVE E ,seattle,98112.0,WA
2139,1511 PIKE PL ,seattle,98101.0,WA
2150,4226 E MADISON ST ,seattle,98112.0,WA
2161,2010 WESTERN AVE,seattle,98121.0,WA
2166,1253 THOMAS ST ,seattle,98109.0,WA
2171,4903 RAINIER AVE S ,seattle,98118.0,WA
2173,3501 SW AVALON WAY,seattle,98126.0,WA
2179,424 7TH AVE S ,seattle,98104.0,WA
2192,2226 1ST AVE ,seattle,98121.0,WA
2198,2963 4TH AVE S ,seattle,98134.0,WA
2200,200 TAYLOR AVE N ,seattle,98109.0,WA
2201,305 HARRISON ST,seattle,98109.0,WA
2202,6417 ROOSEVELT WAY NE #106 ,seattle,98115.0,WA
2207,6501 ROOSEVELT WAY NE,seattle,98115.0,WA
2213,727 E PIKE ST ,seattle,98122.0,WA
2225,401 NE NORTHGATE WAY 1119,seattle,98125.0,WA
2235,808 3RD AVE 190,seattle,98104.0,WA
2245,1601 HARVARD AVE ,seattle,98122.0,WA
2255,4138 UNIVERSITY WAY NE ,seattle,98105.0,WA
2262,325 5TH AVE N,seattle,98109.0,WA
2265,2631 NE UNIVERSITY VILLAGE MALL,seattle,98105.0,WA
2269,2120 W EMERSON PL ,seattle,98199.0,WA
2276,9736 GREENWOOD AVE N ,seattle,98103.0,WA
2282,8549 GREENWOOD AVE N ,seattle,98103.0,WA
2294,7719 N GREENWOOD AVE N ,seattle,98103.0,WA
2302,1515 QUEEN ANNE AVE N,seattle,98109.0,WA
2306,1433 4TH AVE,seattle,98101.0,WA
2310,550 12TH AVE,seattle,98122.0,WA
2314,621 BROADWAY AVE E ,seattle,98102.0,WA
2325,2332 1ST AVE ,seattle,98121.0,WA
2328,1425 31ST AVE S ,seattle,98144.0,WA
2338,2232 QUEEN ANNE AVE N ,seattle,98109.0,WA
2339,2212 E CHERRY ST ,seattle,98122.0,WA
2343,9413 16TH AVE SW,seattle,98106.0,WA
2353,8801 ROOSEVELT WAY NE,seattle,98115.0,WA
2363,1102 N 34TH ST ,seattle,98103.0,WA
2364,3228 1ST AVE S ,seattle,98134.0,WA
2374,4869 RAINIER AVE S ,seattle,98118.0,WA
2381,1660 HARBOR AVE SW,seattle,98126.0,WA
2383,3456 15TH AVE W ,seattle,98119.0,WA
2395,1240 S JACKSON ST,seattle,98144.0,WA
2403,1533 PIKE PL,seattle,98101.0,WA
2409,3418 W MCGRAW ST,seattle,98199.0,WA
2419,4228 UNIVERSITY WAY NE ,seattle,98105.0,WA
2433,5401 25TH AVE NE,seattle,98105.0,WA
2437,1508 MELROSE AVE,seattle,98122.0,WA
2439,205 1ST AVE S ,seattle,98104.0,WA
2454,622 BROADWAY E ,seattle,98102.0,WA
2460,606 5TH AVE S,seattle,98104.0,WA
2472,600 E PINE ST ,seattle,98122.0,WA
2473,4752 UNIVERSITY WAY NE ,seattle,98105.0,WA
2483,406 5TH AVE S,seattle,98104.0,WA
2490,508 S KING ST ,seattle,98104.0,WA
2492,1118 E PIKE ST,seattle,98122.0,WA
2499,219 BROADWAY AVE E #26B,seattle,98102.0,WA
2502,1536 PIKE PL ,seattle,98101.0,WA
2507,615 3RD AVE ,seattle,98104.0,WA
2517,8410 5TH AVE ,seattle,98115.0,WA
2529,2720 3RD AVE #5,seattle,98121.0,WA
2532,4449 CALIFORNIA AVE SW ,seattle,98116.0,WA
2540,720 OLIVE WAY ,seattle,98101.0,WA
2546,422 YALE AVE N ,seattle,98109.0,WA
2557,1501 4TH AVE ,seattle,98101.0,WA
2562,110 12TH AVE,seattle,98122.0,WA
2573,555 NORTHGATE MALL SPC 413,seattle,98125.0,WA
2581,120 BLANCHARD ST ,seattle,98121.0,WA
2589,516 MAYNARD AVE S ,seattle,98104.0,WA
2602,553 1ST AVE S ,seattle,98104.0,WA
2608,8537 15TH AVE NW,seattle,98117.0,WA
2610,1113 6TH AVE,seattle,98101.0,WA
2613,5502 25TH AVE NE ,seattle,98105.0,WA
2627,1400 1ST AVE ,seattle,98101.0,WA
2631,2050 S COLUMBIAN WAY,seattle,98108.0,WA
2648,1410 34TH AVE ,seattle,98122.0,WA
2661,310 NE 72ND ST ,seattle,98115.0,WA
2666,473 N 36TH ST,seattle,98103.0,WA
2677,418 8TH AVE S,seattle,98104.0,WA
2685,5327 DENVER AVE S,seattle,98108.0,WA
2691,4710 42ND AVE SW ,seattle,98116.0,WA
2699,700 5TH AVE,seattle,98104.0,WA
2707,1629 EASTLAKE AVE E,seattle,98102.0,WA
2712,13055 LAKE CITY WAY NE ,seattle,98125.0,WA
2714,214 1ST AVE S ,seattle,98104.0,WA
2726,4548 CALIFORNIA AVE SW ,seattle,98116.0,WA
2738,4129 UNIVERSITY WAY NE ,seattle,98105.0,WA
2739,3311 W MCGRAW ST ,seattle,98199.0,WA
2750,2253 N 56TH ST ,seattle,98103.0,WA
2751,1616 EASTLAKE AVE E ,seattle,98102.0,WA
2764,4336 ROOSEVELT WAY NE #D/E,seattle,98105.0,WA
2765,1517 SW 104TH ST ,seattle,98146.0,WA
2770,6421 15TH AVE NW,seattle,98107.0,WA
2778,1237 S JACKSON ST ,seattle,98144.0,WA
2791,6017 AIRPORT WAY S ,seattle,98108.0,WA
2803,2005 NW MARKET ST ,seattle,98107.0,WA
2819,304 6TH AVE S,seattle,98104.0,WA
2831,803 E PIKE ST ,seattle,98122.0,WA
2838,703 N 34TH ST ,seattle,98103.0,WA
2850,700 E PINE ST ,seattle,98122.0,WA
2862,2200 2ND AVE,seattle,98121.0,WA
2867,2801 E CHERRY ST ,seattle,98122.0,WA
2875,727 PINE ST ,seattle,98101.0,WA
2887,2518 BEACON AVE S ,seattle,98144.0,WA
2891,5701 15th AVE NW #A,seattle,98107.0,WA
2893,401 NE NORTHGATE WAY #VC-3,seattle,98125.0,WA
2894,7419 GREENWOOD AVE N ,seattle,98103.0,WA
2905,1818 WESTLAKE AVE N ,seattle,98109.0,WA
2908,1635 8TH AVE,seattle,98101.0,WA
2914,7821 AURORA AVE N,seattle,98103.0,WA
2917,901 FAIRVIEW AVE N ,seattle,98109.0,WA
2928,1225 4TH AVE ,seattle,98101.0,WA
2939,3701 NE 45TH ST ,seattle,98105.0,WA
2951,9820 AURORA AVE N ,seattle,98103.0,WA
2961,164 S WASHINGTON ST ,seattle,98104.0,WA
2971,8550 GREENWOOD AVE N ,seattle,98103.0,WA
2976,2719 E MADISON ST ,seattle,98112.0,WA
2987,805 NE 65TH ST,seattle,98115.0,WA
2992,109 YESLER WAY ,seattle,98104.0,WA
2993,3510 FREMONT AVE N ,seattle,98103.0,WA
3000,2508 ALKI AVE SW ,seattle,98116.0,WA
3010,3118 NE 65TH ST ,seattle,98115.0,WA
3013,407 CEDAR ST,seattle,98121.0,WA
3021,4868 RAINIER AVE S ,seattle,98118.0,WA
3031,1707 NW MARKET ST ,seattle,98107.0,WA
3044,317 W GALER ST ,seattle,98119.0,WA
3051,2114 N 45TH ST,seattle,98103.0,WA
3053,456 12TH AVE,seattle,98122.0,WA
3064,1100 PIKE ST ,seattle,98101.0,WA
3077,2201 4TH AVE S ,seattle,98134.0,WA
3084,235 SUMMIT AVE E,seattle,98102.0,WA
3085,2325 NW MARKET ST ,seattle,98107.0,WA
3096,1706 RAINIER AVE S ,seattle,98144.0,WA
3108,5425 RUSSELL AVE NW ,seattle,98107.0,WA
3120,507 15TH AVE E,seattle,98112.0,WA
3132,2514 E CHERRY ST,seattle,98122.0,WA
3140,4510 CALIFORNIA AVE SW ,seattle,98116.0,WA
3153,6501 35TH AVE SW ,seattle,98126.0,WA
3156,4301 LEARY WAY NW ,seattle,98107.0,WA
3170,2421 1ST AVE,seattle,98121.0,WA
3179,1000 2ND AVE ,seattle,98104.0,WA
3188,614 MAYNARD AVE S ,seattle,98104.0,WA
3196,5506 22ND AVE NW ,seattle,98107.0,WA
3209,5210 ROOSEVELT WAY NE #B ,seattle,98105.0,WA
3218,707 S KING ST ,seattle,98104.0,WA
3229,3642 33RD AVE S C-6,seattle,98144.0,WA
3234,701 5TH AVE 211,seattle,98104.0,WA
3237,8539 15TH AVE NW ,seattle,98117.0,WA
3250,15252 AURORA AVE N ,shoreline,98133.0,WA
3261,323 NW 85TH ST,seattle,98117.0,WA
3272,2208 QUEEN ANNE AVE N ,seattle,98109.0,WA
3286,600 4TH AVE ,seattle,98104.0,WA
3294,5603 4TH AVE S,seattle,98108.0,WA
3297,2401 UTAH AVE S,seattle,98134.0,WA
3327,2800 1ST AVE ,seattle,98121.0,WA
3329,2918 SW AVALON WAY ,seattle,98126.0,WA
3340,1401 3RD AVE ,seattle,98101.0,WA
3351,9029 25TH AVE SW,seattle,98126.0,WA
3359,209 2ND AVE S ,seattle,98104.0,WA
3369,1904 PIKE PL ,seattle,98101.0,WA
3380,1125 E OLIVE ST STE A,seattle,98122.0,WA
3392,8345 15TH AVE NW,seattle,98117.0,WA
3394,404 N 36TH ST,seattle,98103.0,WA
3402,5518 20TH AVE NW ,seattle,98107.0,WA
3414,2010 4TH AVE ,seattle,98121.0,WA
3425,2830 NW MARKET ST,seattle,98107.0,WA
3427,544 ELLIOTT AVE W ,seattle,98119.0,WA
3439,4900 RAINIER AVE S ,seattle,98118.0,WA
3444,305 LENORA ST ,seattle,98121.0,WA
3449,3221 NE 145TH ST ,seattle,98125.0,WA
3450,2021 RAINIER AVE S ,seattle,98144.0,WA
3456,821 1ST AVE ,seattle,98104.0,WA
3461,14303 AURORA AVE N ,seattle,98133.0,WA
3472,103 1ST AVE S,seattle,98104.0,WA
3476,1815 N 45TH ST #103 ,seattle,98103.0,WA
3486,2043 EASTLAKE AVE E ,seattle,98102.0,WA
3498,1016 MADISON ST,seattle,98104.0,WA
3507,3301 4TH AVE S ,seattle,98134.0,WA
3514,1420 5TH AVE,seattle,98101.0,WA
3516,7845 LAKE CITY WAY NE ,seattle,98115.0,WA
3527,1520 7TH AVE,seattle,98101.0,WA
3528,210 BROADWAY E,seattle,98102.0,WA
3531,2231 32ND AVE W ,seattle,98199.0,WA
3543,351 ELLIOTT AVE W ,seattle,98119.0,WA
3544,8502 AURORA AVE N,seattle,98103.0,WA
3547,4135 UNIVERSITY WAY NE ,seattle,98105.0,WA
3553,107 Pike ST,seattle,98101.0,WA
3559,2366 EASTLAKE AVE E ,seattle,98102.0,WA
3567,105 W MERCER ST,seattle,98119.0,WA
3578,12336 31ST AVE NE,seattle,98125.0,WA
3589,524 15TH AVE E ,seattle,98112.0,WA
3590,4622 26TH AVE NE,seattle,98105.0,WA
3601,8600 14TH AVE S,seattle,98108.0,WA
3606,6411 LATONA AVE NE ,seattle,98115.0,WA
3616,305 HARRISON ST #220,seattle,98109.0,WA
3618,305 HARRISON ST #225,seattle,98109.0,WA
3619,709 N 35TH ST ,seattle,98103.0,WA
3620,4203 SW ADMIRAL WAY ,seattle,98116.0,WA
3623,301 2ND AVE EXT S,seattle,98104.0,WA
3626,1170 REPUBLICAN ST #B,seattle,98109.0,WA
3631,8004 GREENWOOD AVE N ,seattle,98103.0,WA
3635,501 23RD AVE ,seattle,98122.0,WA
3648,808 POST AVE ,seattle,98104.0,WA
3659,925 4TH AVE #430,seattle,98104.0,WA
3660,2201 QUEEN ANNE AVE N,seattle,98109.0,WA
3665,1024 S BAILEY ST ,seattle,98108.0,WA
3676,3820 S FERDINAND ST ,seattle,98118.0,WA
3679,1510 NE 117TH ST STE B,seattle,98125.0,WA
3683,1140 NW MARKET ST ,seattle,98107.0,WA
3690,1226 S JACKSON ST ,seattle,98144.0,WA
3693,612 2ND AVE,seattle,98104.0,WA
3694,5509 UNIVERSITY WAY NE #C,seattle,98105.0,WA
3695,9828 15TH AVE SW STE B,seattle,98106.0,WA
3710,213 BROADWAY AVE E ,seattle,98102.0,WA
3717,4142 BROOKLYN AVE NE ,seattle,98105.0,WA
3721,10231 16TH AVE SW ,seattle,98146.0,WA
3730,4918 RAINIER AVE S ,seattle,98118.0,WA
3742,701 5TH AVE 102,seattle,98104.0,WA
3744,94 COLUMBIA ST ,seattle,98104.0,WA
3754,4411 STONE WAY N ,seattle,98103.0,WA
3764,1429 1ST AVE ,seattle,98101.0,WA
3776,3416 W MCGRAW ST ,seattle,98199.0,WA
3793,6508 ROOSEVELT WAY NE,seattle,98115.0,WA
3802,2695 NE VILLAGE LN,seattle,98105.0,WA
3814,8516 GREENWOOD AVE N ,seattle,98103.0,WA
3819,4106 BROOKLYN AVE NE ,seattle,98105.0,WA
3831,10641 16TH AVE SW ,seattle,98146.0,WA
3836,1531 MELROSE AVE,seattle,98122.0,WA
3842,9614 14TH AVE SW,seattle,98106.0,WA
3845,107 1ST AVE S ,seattle,98104.0,WA
3851,95 PINE ST,seattle,98101.0,WA
3860,4433 S GRAHAM ST ,seattle,98118.0,WA
3867,4001 GILMAN AVE W ,seattle,98199.0,WA
3878,456 N 36TH ST ,seattle,98103.0,WA
3889,1621 E OLIVE WAY ,seattle,98102.0,WA
3896,806 12TH AVE,seattle,98122.0,WA
3902,701 5TH AVE,seattle,98104.0,WA
3905,601 2ND AVE,seattle,98104.0,WA
3906,1043 S JACKSON ST #104,seattle,98104.0,WA
3912,2100 24TH AVE S ,seattle,98144.0,WA
3917,2260 1ST AVE S ,seattle,98134.0,WA
3930,1221 MADISON ST,seattle,98104.0,WA
3934,1919 POST ALY ,seattle,98101.0,WA
3942,1200 3RD AVE 120,seattle,98101.0,WA
3949,1211 PINE ST,seattle,98101.0,WA
3952,2524 16TH AVE S ,seattle,98144.0,WA
3953,2301 N 45TH ST ,seattle,98103.0,WA
3963,2338 RAINIER AVE S,seattle,98144.0,WA
3967,2255 NE 65TH ST ,seattle,98115.0,WA
3971,425 CEDAR ST ,seattle,98121.0,WA
3994,1801 N 34TH ST ,seattle,98103.0,WA
4003,7500 25TH AVE NE ,seattle,98115.0,WA
4007,7311 GREENWOOD AVE N ,seattle,98103.0,WA
4020,6000 PHINNEY AVE N ,seattle,98103.0,WA
4032,4542 CALIFORNIA AVE SW ,seattle,98116.0,WA
4043,207 1ST AVE S ,seattle,98104.0,WA
4053,2809 THORNDYKE AVE W #A,seattle,98199.0,WA
4054,6049 SEAVIEW AVE NW ,seattle,98107.0,WA
4069,615 W MCGRAW ST,seattle,98119.0,WA
4080,2865 EASTLAKE AVE E,seattle,98102.0,WA
4082,1001 FAIRVIEW AVE N #1800,seattle,98109.0,WA
4094,1404 E PINE ST,seattle,98122.0,WA
4096,513 N 36TH ST ,seattle,98103.0,WA
4103,2101 4TH AVE #140,seattle,98121.0,WA
4107,2650 NE UNIVERSITY VILLAGE ST,seattle,98105.0,WA
4120,4139 UNIVERSITY WAY NE ,seattle,98105.0,WA
4129,8917 ROOSEVELT WAY NE ,seattle,98115.0,WA
4140,4725 CALIFORNIA AVE SW ,seattle,98116.0,WA
4144,4142 UNIVERSITY WAY NE,seattle,98105.0,WA
4149,9447 RAINIER AVE S,seattle,98118.0,WA
4160,2201 ALASKAN WAY ,seattle,98121.0,WA
4174,5101 25th AVE NE #2-3,seattle,98105.0,WA
4179,518 6TH AVE S ,seattle,98104.0,WA
4186,1319 N 49TH ST,seattle,98103.0,WA
4192,1101 E PIKE ST ,seattle,98122.0,WA
4194,2300 NE 65TH ST ,seattle,98115.0,WA
4205,5407 20TH AVE NW,seattle,98107.0,WA
4212,1531 14TH AVE ,seattle,98122.0,WA
4222,517 S WELLER ST ,seattle,98104.0,WA
4230,1613 W DRAVUS ST ,seattle,98119.0,WA
4246,10 BOSTON ST ,seattle,98109.0,WA
4256,4343 UNIVERSITY WAY NE ,seattle,98105.0,WA
4268,1936 HARBOR AVE SW ,seattle,98126.0,WA
4283,1000 E PIKE ST,seattle,98122.0,WA
4287,327 NE Thornton PL,seattle,98125.0,WA
4293,1212 S MAIN ST #A ,seattle,98144.0,WA
4302,5327 BALLARD AVE NW,seattle,98107.0,WA
4304,9019 AURORA AVE N ,seattle,98103.0,WA
4314,2334 2ND AVE ,seattle,98121.0,WA
4322,1101 ALASKAN WAY ,seattle,98101.0,WA
4331,542 1ST AVE S ,seattle,98104.0,WA
4339,3509 SW HENDERSON ST ,seattle,98126.0,WA
4349,2137 N NORTHGATE WAY ,seattle,98133.0,WA
4352,1723 NW MARKET ST ,seattle,98107.0,WA
4363,4435 CALIFORNIA AVE SW ,seattle,98116.0,WA
4366,668 S WELLER ST,seattle,98104.0,WA
4375,672 S KING ST,seattle,98104.0,WA
4379,9622 16TH AVE SW,seattle,98106.0,WA
4386,2516 ALKI AVE SW ,seattle,98116.0,WA
4398,8819 14TH AVE S,seattle,98108.0,WA
4400,4546 CALIFORNIA AVE SW ,seattle,98116.0,WA
4411,5105 LEARY AVE NW,seattle,98107.0,WA
4414,1920 PIKE PL,seattle,98101.0,WA
4420,1467 E REPUBLICAN ST,seattle,98112.0,WA
4428,11001 35TH AVE NE ,seattle,98125.0,WA
4438,102 LAKESIDE AVE S ,seattle,98122.0,WA
4439,2823 SW ROXBURY ST ,seattle,98126.0,WA
4445,3058 NW 54TH ST ,seattle,98107.0,WA
4456,6324 6TH AVE S,seattle,98108.0,WA
4470,310 TERRY AVE N,seattle,98109.0,WA
4475,4215 GILMAN AVE W ,seattle,98199.0,WA
4480,9219 35TH AVE NE ,seattle,98115.0,WA
4491,8904 AURORA AVE N ,seattle,98103.0,WA
4497,610 NW 65TH ST ,seattle,98117.0,WA
4511,1422 1ST AVE ,seattle,98101.0,WA
4530,316 15TH AVE E ,seattle,98112.0,WA
4533,1827 15TH AVE W,seattle,98119.0,WA
4538,3500 SW AVALON WAY ,seattle,98126.0,WA
4549,8917 LAKE CITY WAY NE STE #345,seattle,98115.0,WA
4560,1930 PIKE PL,seattle,98101.0,WA
4570,600 PINE ST ,seattle,98101.0,WA
4582,4727 CALIFORNIA AVE SW ,seattle,98116.0,WA
4594,1554 E OLIVE WAY ,seattle,98102.0,WA
4605,900 RAINIER AVE S ,seattle,98144.0,WA
4608,9629 16TH AVE SW,seattle,98106.0,WA
4614,1023 ALASKAN WAY,seattle,98104.0,WA
4621,2123 E UNION ST ,seattle,98122.0,WA
4629,2510 1ST AVE,seattle,98121.0,WA
4631,507 NE Northgate WAY,seattle,98125.0,WA
4648,823 3RD AVE #100,seattle,98104.0,WA
4656,312 N 67TH ST,seattle,98103.0,WA
4668,11728 AURORA AVE N,seattle,98133.0,WA
4686,1503 1ST AVE ,seattle,98101.0,WA
4698,801 SENECA ST,seattle,98101.0,WA
4705,5439 BALLARD AVE NW ,seattle,98107.0,WA
4717,3512 FREMONT PL N,seattle,98103.0,WA
4718,3829 DELRIDGE WAY SW ,seattle,98106.0,WA
4721,19021 INTERNATIONAL BL ,sea tac,98188.0,WA
4726,3055 21ST AVE W ,seattle,98199.0,WA
4739,2408 1ST AVE,seattle,98121.0,WA
4749,2505 1ST AVE ,seattle,98121.0,WA
4758,309 S CLOVERDALE ST ,seattle,98108.0,WA
4760,94 PIKE ST,seattle,98101.0,WA
4763,8517 14TH AVE S,seattle,98108.0,WA
4772,714 TAYLOR AVE N ,seattle,98109.0,WA
4778,1404 34TH AVE ,seattle,98122.0,WA
4787,9000 HOLMAN RD NW ,seattle,98117.0,WA
4793,9743 HOLMAN RD NW ,seattle,98117.0,WA
4800,332 15TH AVE E ,seattle,98112.0,WA
4807,2200 S JACKSON ST ,seattle,98144.0,WA
4814,2800 E MADISON ST ,seattle,98112.0,WA
4816,927 HOWELL ST,seattle,98101.0,WA
4821,2820 ALKI AVE SW ,seattle,98116.0,WA
4826,2214 2ND AVE ,seattle,98121.0,WA
4835,13241 AURORA AVE N ,seattle,98133.0,WA
4840,1200 5TH AVE ,seattle,98101.0,WA
4841,8210 35TH AVE NE ,seattle,98115.0,WA
4853,8003 SEAVIEW AVE NW,seattle,98117.0,WA
4867,3820 RAINIER AVE S,seattle,98118.0,WA
4872,1024 E Pike ST ,seattle,98122.0,WA
4873,4235 E Madison ST ,seattle,98112.0,WA
4875,428 WESTLAKE AVE N #101,seattle,98109.0,WA
4880,213 MARION ST ,seattle,98104.0,WA
4890,2620 ALKI AVE SW ,seattle,98116.0,WA
4895,7210 WOODLAWN AVE NE ,seattle,98115.0,WA
4906,93 PIKE ST #204,seattle,98101.0,WA
4913,422 2ND AVE S #1,seattle,98104.0,WA
4917,415 7TH AVE S,seattle,98104.0,WA
4920,2619 1ST AVE ,seattle,98121.0,WA
4931,14 MERCER ST ,seattle,98109.0,WA
4943,708 NW 65TH ST ,seattle,98117.0,WA
4948,1501 PIKE PL,seattle,98101.0,WA
4958,1940 WESTLAKE AVE ,seattle,98101.0,WA
4971,2100 N NORTHGATE WAY #E,seattle,98133.0,WA
4976,3506 STONE WAY N,seattle,98103.0,WA
4977,1208 MADISON ST,seattle,98104.0,WA
4978,2411 2ND AVE ,seattle,98121.0,WA
4994,4114 UNIVERSITY WAY NE ,seattle,98105.0,WA
5007,674 S WELLER ST,seattle,98104.0,WA
5018,617 S JACKSON ST S,seattle,98104.0,WA
5024,1429 12TH AVE #B,seattle,98122.0,WA
5032,2248 NW Market ST,seattle,98107.0,WA
5038,655 S JACKSON ST ,seattle,98104.0,WA
5039,3057 BEACON AVE S,seattle,98144.0,WA
5041,5433 BALLARD AVE NW ,seattle,98107.0,WA
5048,225 12TH AVE S ,seattle,98144.0,WA
5060,656 S KING ST ,seattle,98104.0,WA
5072,5231 BALLARD AVE NW ,seattle,98107.0,WA
5079,1112 4TH AVE ,seattle,98101.0,WA
5091,5500 8TH AVE NW ,seattle,98107.0,WA
5100,2220 QUEEN ANNE AVE N ,seattle,98109.0,WA
5112,1908 3RD AVE ,seattle,98101.0,WA
5114,1207 S JACKSON ST #110B,seattle,98144.0,WA
5116,10410 HOLMAN RD NW ,seattle,98133.0,WA
5128,4001 AIRPORT WAY S ,seattle,98108.0,WA
5129,9811 15th AVE SW,seattle,98146.0,WA
5146,4909 RAINIER AVE S Ste 102,seattle,98118.0,WA
5151,2129 QUEEN ANNE AVE N ,seattle,98109.0,WA
5165,907 MADISON ST,seattle,98104.0,WA
5175,570 ROY ST,seattle,98109.0,WA
5183,3520 FREMONT AVE N ,seattle,98103.0,WA
5186,3508 FREMONT PL N,seattle,98103.0,WA
5197,3409 STONE WAY N #101,seattle,98103.0,WA
5204,9629 15TH AVE SW ,seattle,98106.0,WA
5212,5400 14TH ST NW ,seattle,98107.0,WA
5221,1629 6TH AVE,seattle,98101.0,WA
5223,2515 NE 55TH ST ,seattle,98105.0,WA
5236,2020 2ND AVE ,seattle,98121.0,WA
5246,217 PIKE ST,seattle,98101.0,WA
5255,1417 BROADWAY ,seattle,98122.0,WA
5281,1483 ALASKAN WAY ,seattle,98101.0,WA
5286,215 JAMES ST,seattle,98104.0,WA
5298,5225 BALLARD AVE NW ,seattle,98107.0,WA
5310,12513 LAKE CITY WAY NE,seattle,98125.0,WA
5313,8230 35TH AVE NE ,seattle,98115.0,WA
5325,4437 CALIFORNIA AVE SW ,seattle,98116.0,WA
5328,610 S JACKSON ST,seattle,98104.0,WA
5337,3621 33RD AVE S,seattle,98144.0,WA
5338,401 NE NORTHLAKE WAY ,seattle,98105.0,WA
5355,4515 UNIVERSITY WAY NE ,seattle,98105.0,WA
5358,1165 HARRISON ST,seattle,98109.0,WA
5365,2030 5TH AVE ,seattle,98121.0,WA
5375,1212 2ND AVE ,seattle,98101.0,WA
5388,1833 BROADWAY AVE ,seattle,98122.0,WA
5402,2962 1ST AVE S ,seattle,98134.0,WA
5410,12306 LAKE CITY WAY NE ,seattle,98125.0,WA
5421,6757 8TH AVE NW,seattle,98117.0,WA
5435,15305 8TH AVE SW ,seattle,98166.0,WA
5437,1201 3RD AVE #210,seattle,98101.0,WA
5445,1028 1ST AVE S ,seattle,98104.0,WA
5453,5905 AIRPORT WAY S,seattle,98108.0,WA
5460,2305 EASTLAKE AVE E ,seattle,98102.0,WA
5472,528 QUEEN ANNE AVE N ,seattle,98109.0,WA
5473,5963 CORSON AVE S #172,seattle,98108.0,WA
5478,94 PIKE ST ,seattle,98101.0,WA
5479,5417 22ND AVE NW ,seattle,98107.0,WA
5491,5201 UNIVERSITY WAY NE,seattle,98105.0,WA
5502,2401 4TH AVE S,seattle,98134.0,WA
5505,3527 CHELAN AVE SW,seattle,98106.0,WA
5515,1901 2ND AVE ,seattle,98101.0,WA
5522,903 19TH AVE E ,seattle,98112.0,WA
5539,722 PINE ST ,seattle,98101.0,WA
5550,658 NE NORTHLAKE WAY ,seattle,98105.0,WA
5556,516 7TH AVE S,seattle,98104.0,WA
5558,2001 4TH AVE ,seattle,98121.0,WA
5573,2422 1ST AVE ,seattle,98121.0,WA
5581,5025 25TH AVE NE ,seattle,98105.0,WA
5583,2425 4TH AVE S ,seattle,98134.0,WA
5591,1937 1ST AVE ,seattle,98101.0,WA
5600,1223 E CHERRY ST,seattle,98122.0,WA
5603,1007 BOREN AVE,seattle,98104.0,WA
5613,6209 15TH AVE NW,seattle,98107.0,WA
5621,718 TAYLOR AVE N ,seattle,98109.0,WA
5630,620 W MCGRAW ST ,seattle,98119.0,WA
5642,1408 NW 85TH ST ,seattle,98117.0,WA
5655,1514 PIKE PL SITE 2,seattle,98101.0,WA
5672,1420 12TH AVE ,seattle,98122.0,WA
5682,418 NW 65TH ST ,seattle,98117.0,WA
5684,12513 LAKE CITY WAY NE ,seattle,98125.0,WA
5689,9261 45TH AVE SW ,seattle,98136.0,WA
5700,1301 5TH AVE ,seattle,98101.0,WA
5708,1529 6TH AVE ,seattle,98101.0,WA
5718,7217 GREENWOOD AVE N,seattle,98103.0,WA
5725,6315 15TH AVE NW ,seattle,98107.0,WA
5731,5200 BALLARD AVE NW,seattle,98107.0,WA
5733,2727 4TH AVE S,seattle,98134.0,WA
5736,507 S JACKSON ST ,seattle,98104.0,WA
5737,213 PIKE ST ,seattle,98101.0,WA
5747,1501 17TH AVE E ,seattle,98112.0,WA
5759,913 E PIKE ST ,seattle,98122.0,WA
5773,4886 BEACON AVE S,seattle,98108.0,WA
5775,2112 NE 65TH ST ,seattle,98115.0,WA
5787,1520 PIKE PL,seattle,98101.0,WA
5796,306 LENORA ST,seattle,98121.0,WA
5804,5000 E MARGINAL WAY S,seattle,98134.0,WA
5821,4458 CALIFORNIA AVE SW ,seattle,98116.0,WA
5830,5245 CALIFORNIA AVE SW,seattle,98136.0,WA
5840,173 S Washington ST ,seattle,98104.0,WA
5849,1907 4TH AVE S,seattle,98134.0,WA
5851,1219 E JEFFERSON ST ,seattle,98122.0,WA
5858,118 W MERCER ST ,seattle,98119.0,WA
5872,1509 1ST AVE ,seattle,98101.0,WA
5884,530 QUEEN ANNE AVE N ,seattle,98109.0,WA
5896,411 1ST AVE S ,seattle,98104.0,WA
5906,6519 4TH AVE S #B,seattle,98108.0,WA
5908,111 NE 45TH ST ,seattle,98105.0,WA
5920,6415 32ND AVE NW ,seattle,98107.0,WA
5925,213 N 85TH ST ,seattle,98103.0,WA
5936,4865 RAINIER AVE S ,seattle,98118.0,WA
5946,3715 NE 45TH ST ,seattle,98105.0,WA
5959,4247 UNIVERSITY WAY NE ,seattle,98105.0,WA
5972,2115 QUEEN ANNE AVE N ,seattle,98109.0,WA
5983,409 ROY ST ,seattle,98109.0,WA
5992,1928 PIKE PL,seattle,98101.0,WA
6002,415 1ST AVE S ,seattle,98104.0,WA
6009,301 NW 85TH ST ,seattle,98117.0,WA
6011,222 5TH AVE N,seattle,98109.0,WA
6035,1600 PIKE PL ,seattle,98101.0,WA
6046,14515 AURORA AVE N,shoreline,98133.0,WA
6053,4509 CALIFORNIA AVE SW,seattle,98116.0,WA
6061,1400 34TH AVE ,seattle,98122.0,WA
6071,135 S LUCILE ST,seattle,98108.0,WA
6081,2125 QUEEN ANNE AVE N ,seattle,98109.0,WA
6092,2801 E MADISON ST ,seattle,98112.0,WA
6096,4333 UNIVERSITY WAY NE ,seattle,98105.0,WA
6108,305 HARRISON ST #221,seattle,98109.0,WA
6110,1514 PIKE PL,seattle,98101.0,WA
6121,4512 CALIFORNIA AVE SW ,seattle,98116.0,WA
6131,4541 UNIVERSITY WAY NE ,seattle,98105.0,WA
6143,72 S WASHINGTON ST,seattle,98104.0,WA
6163,93 YESLER WAY,seattle,98104.0,WA
6172,1401 NE 42ND ST,seattle,98105.0,WA
6177,3516 FREMONT PL N,seattle,98103.0,WA
6182,927 9TH AVE,seattle,98104.0,WA
6186,364 ROY ST,seattle,98109.0,WA
6189,6101 15TH AVE NW ,seattle,98107.0,WA
6209,7818 GREENWOOD AVE N ,seattle,98103.0,WA
6221,301 WESTLAKE AVE N ,seattle,98109.0,WA
6225,20717 INTERNATIONAL BL ,seattle,98198.0,WA
6232,757 BELLEVUE AVE E ,seattle,98102.0,WA
6234,426 BROADWAY AVE E ,seattle,98102.0,WA
6246,1447 NW BALLARD WAY,seattle,98107.0,WA
6262,1506 PIKE PL ,seattle,98101.0,WA
6272,7040 1/2 15TH AVE NW ,seattle,98117.0,WA
6276,524 6TH AVE S ,seattle,98104.0,WA
6287,2110 N 55TH ST ,seattle,98103.0,WA
6294,615 19TH AVE E ,seattle,98112.0,WA
6307,613 BROADWAY AVE E ,seattle,98102.0,WA
6318,1046 1ST AVE S ,seattle,98134.0,WA
6328,4750 CALIFORNIA AVE SW ,seattle,98116.0,WA
6333,315 N 145TH ST ,seattle,98133.0,WA
6337,5310 BALLARD AVE NW ,seattle,98107.0,WA
6345,928 12TH AVE ,seattle,98122.0,WA
6348,2000 4TH AVE ,seattle,98121.0,WA
6357,429 WESTLAKE AVE N,seattle,98109.0,WA
6363,901 5TH AVE ,seattle,98104.0,WA
6366,5140 BALLARD AVE NW ,seattle,98107.0,WA
6373,1200 NE 45TH ST ,seattle,98105.0,WA
6384,707 E PINE ST,seattle,98122.0,WA
6396,407 BROAD ST,seattle,98109.0,WA
6403,1001 E PINE ST,seattle,98122.0,WA
6411,1719 SW ROXBURY ST ,seattle,98106.0,WA
6422,90 PIKE ST,seattle,98101.0,WA
6433,21 MERCER ST,seattle,98109.0,WA
6442,909 MADISON ST ,seattle,98104.0,WA
6448,2329 CALIFORNIA AVE SW ,seattle,98116.0,WA
6450,700 PIKE ST ,seattle,98101.0,WA
6462,462 N 36TH ST ,seattle,98103.0,WA
6467,1526 PIKE PL ,seattle,98101.0,WA
6476,4401 4TH AVE S ,seattle,98134.0,WA
6491,4222 UNIVERSITY WAY NE ,seattle,98105.0,WA
6493,1427 BROADWAY,seattle,98122.0,WA
6499,8 W MERCER ST,seattle,98119.0,WA
6503,1207 S JACKSON ST B101,seattle,98144.0,WA
6510,1411 21ST AVE ,seattle,98122.0,WA
6526,515 QUEEN ANNE AVE ,seattle,98109.0,WA
6537,1101 ALASKAN WAY 201,seattle,98101.0,WA
6544,400 PINE ST #42,seattle,98101.0,WA
6547,2221 NW MARKET ST,seattle,98107.0,WA
6560,1538 12TH AVE #B,seattle,98122.0,WA
6566,2300 CALIFORNIA AVE SW ,seattle,98116.0,WA
6578,1429 4TH AVE,seattle,98101.0,WA
6582,1600 MELROSE AVE,seattle,98122.0,WA
6584,121 E BOSTON ST,seattle,98102.0,WA
6587,10119 AURORA AVE N ,seattle,98133.0,WA
6591,1950 6TH AVE,seattle,98101.0,WA
6599,3650 WALLINGFORD AVE N,seattle,98103.0,WA
6605,601 QUEEN ANNE AVE N ,seattle,98109.0,WA
6613,600 5TH AVE S ,seattle,98104.0,WA
6614,6509 ROOSEVELT WAY NE,seattle,98115.0,WA
6627,345 15TH AVE E,seattle,98112.0,WA
6631,3130 E MADISON ST ,seattle,98112.0,WA
6639,663 S WELLER ST ,seattle,98104.0,WA
6652,2301 NW MARKET ST ,seattle,98107.0,WA
6677,818 STEWART ST #120,seattle,98101.0,WA
6680,805 S 112TH ST ,seattle,98168.0,WA
6687,14330 LAKE CITY WAY NE STE 101,seattle,98125.0,WA
6691,5503 AIRPORT WAY S ,seattle,98108.0,WA
6699,600 PINE ST,seattle,98101.0,WA
6713,2331 2ND AVE,seattle,98121.0,WA
6721,1501 WESTERN AVE ,seattle,98101.0,WA
6730,2819 2ND AVE ,seattle,98121.0,WA
6734,1356 E OLIVE WAY ,seattle,98122.0,WA
6742,2580 SW BARTON ST,seattle,98126.0,WA
6748,515 Union ST ,seattle,98101.0,WA
6753,14346 15TH AVE NE ,seattle,98125.0,WA
6759,318 NICKERSON ST,seattle,98109.0,WA
6770,5239 BALLARD AVE NW,seattle,98107.0,WA
6772,5305 15TH AVE NW,seattle,98107.0,WA
6783,608 S WELLER ST ,seattle,98104.0,WA
6795,520 S MAIN ST ,seattle,98104.0,WA
6796,2313 N 45TH ST ,seattle,98103.0,WA
6807,4237 UNIVERSITY WAY NE ,seattle,98105.0,WA
6817,2460 WESTERN AVE ,seattle,98121.0,WA
6824,5601 1ST AVE S ,seattle,98108.0,WA
6828,1700 7TH AVE ,seattle,98101.0,WA
6834,1401 BROADWAY,seattle,98122.0,WA
6841,206 N 36TH ST ,seattle,98103.0,WA
6852,306 23RD AVE S ,seattle,98144.0,WA
6856,807 1ST AVE ,seattle,98104.0,WA
6863,4 W ROY ST ,seattle,98119.0,WA
6872,625 BROADWAY AVE E ,seattle,98102.0,WA
6883,3315 BEACON AVE S,seattle,98144.0,WA
6890,2132 N NORTHGATE WAY ,seattle,98133.0,WA
6899,2234 2ND AVE ,seattle,98121.0,WA
6910,5700 1ST AVE S,seattle,98108.0,WA
6917,2341 CALIFORNIA AVE SW ,seattle,98116.0,WA
6928,9999 HOLMAN RD NW,seattle,98117.0,WA
6934,605 QUEEN ANNE AVE N ,seattle,98109.0,WA
6946,500 BROADWAY AVE,seattle,98122.0,WA
6949,2308 E Union ST,seattle,98122.0,WA
6951,2336 25TH AVE S,seattle,98144.0,WA
6957,1452 NW 70TH ST ,seattle,98117.0,WA
6969,2770 ALKI AVE SW,seattle,98116.0,WA
6980,3401 CALIFORNIA AVE SW ,seattle,98116.0,WA
6987,10601 S 16th AVE SW,seattle,98146.0,WA
6996,3121 E MADISON ST ,seattle,98112.0,WA
7004,13448 AURORA AVE N ,seattle,98133.0,WA
7012,1714 18TH AVE,seattle,98122.0,WA
7022,221 1ST AVE S ,seattle,98104.0,WA
7028,9400 RAINIER AVE S,seattle,98118.0,WA
7036,2947 EASTLAKE AVE E ,seattle,98102.0,WA
7039,1827 15TH AVE W A-10,seattle,98119.0,WA
7044,232 1ST AVE W ,seattle,98119.0,WA
7056,3407 CALIFORNIA AVE SW,seattle,98116.0,WA
7063,3040 NE 45TH ST ,seattle,98105.0,WA
7075,1620 4TH AVE #4,seattle,98101.0,WA
7078,7401 GREENWOOD AVE N ,seattle,98103.0,WA
7089,1100 WESTERN AVE,seattle,98101.0,WA
7092,4309 S HENDERSON ST ,seattle,98118.0,WA
7093,3526 FREMONT PL N #B,seattle,98103.0,WA
7102,3230 EASTLAKE AVE E ,seattle,98102.0,WA
7114,1000 NE NORTHGATE WAY ,seattle,98125.0,WA
7116,908 12TH AVE,seattle,98122.0,WA
7122,1411 N 45TH ST ,seattle,98103.0,WA
7132,2609 S MCCLELLAN ST ,seattle,98144.0,WA
7144,415 CEDAR ST,seattle,98121.0,WA
7145,711 S KING ST,seattle,98104.0,WA
7151,555 ALOHA ST 100,seattle,98109.0,WA
7158,1200 S JACKSON ST #8,seattle,98144.0,WA
7159,4256 FREMONT AVE N ,seattle,98103.0,WA
7160,129 1ST AVE N ,seattle,98109.0,WA
7161,3019 BEACON AVE S,seattle,98144.0,WA
7162,9005 35TH AVE SW ,seattle,98126.0,WA
7164,9031 25TH AVE SW,seattle,98126.0,WA
7171,1509 PIKE PL #3,seattle,98101.0,WA
7182,721 E PIKE ST,seattle,98122.0,WA
7187,7111 RAINIER AVE S,seattle,98118.0,WA
7190,4106 BROOKLYN AVE NE #101 A,seattle,98105.0,WA
7193,2523 5th AVE,seattle,98121.0,WA
7196,1522 12TH AVE,seattle,98122.0,WA
7200,5242 LEARY WAY NW,seattle,98107.0,WA
7213,115 BROADWAY AVE E ,seattle,98102.0,WA
7224,8313 GREENWOOD AVE N,seattle,98103.0,WA
7228,2212 N 45TH ST ,seattle,98103.0,WA
7239,1501 A MELROSE AVE,seattle,98122.0,WA
7242,216 UNION ST ,seattle,98101.0,WA
7252,706 Taylor AVE N,seattle,98109.0,WA
7259,269 NE 45TH ST ,seattle,98105.0,WA
7267,419 DENNY WAY ,seattle,98109.0,WA
7278,4229 UNIVERSITY WAY NE,seattle,98105.0,WA
7306,1759 1ST AVE S,seattle,98134.0,WA
7311,2106 N 55TH ST ,seattle,98103.0,WA
7320,110 BOREN AVE S ,seattle,98144.0,WA
7329,1325 4TH AVE ,seattle,98101.0,WA
7331,3617 NE 45TH ST ,seattle,98105.0,WA
7342,350 TERRY AVE N,seattle,98109.0,WA
7344,2234 1ST AVE,seattle,98121.0,WA
7348,629 PIKE ST ,seattle,98101.0,WA
7360,5041 RAINIER AVE S #107,seattle,98118.0,WA
7361,3501 STONE WAY N ,seattle,98103.0,WA
7371,1722 NW MARKET ST ,seattle,98107.0,WA
7385,6760 W MARGINAL WAY SW ,seattle,98106.0,WA
7388,8617 14TH AVE S,seattle,98108.0,WA
7398,2739 E MADISON ST ,seattle,98112.0,WA
7406,801 1ST AVE ,seattle,98104.0,WA
7416,500 MERCER ST ,seattle,98109.0,WA
7426,1302 6TH AVE,seattle,98101.0,WA
7427,1411 NE 42ND ST ,seattle,98105.0,WA
7432,4718 CALIFORNIA AVE SW ,seattle,98116.0,WA
7444,2132 WESTLAKE AVE N ,seattle,98109.0,WA
7446,9910 8TH AVE SW,seattle,98106.0,WA
7451,2021 NW MARKET ST ,seattle,98107.0,WA
7464,6546 CALIFORNIA AVE SW,seattle,98136.0,WA
7466,4302 FREMONT AVE N,seattle,98103.0,WA
7471,1830 12TH AVE ,seattle,98122.0,WA
7476,5316 BALLARD AVE NW,seattle,98107.0,WA
7480,8305 15TH AVE NW,seattle,98117.0,WA
7494,3818 S GRAHAM ST #B,seattle,98118.0,WA
7501,14300 AURORA AVE N ,seattle,98133.0,WA
7510,1943 1ST AVE S,seattle,98134.0,WA
7518,408 BROADWAY AVE E,seattle,98102.0,WA
7523,4501 INTERLAKE AVE N,seattle,98103.0,WA
7533,9615 15TH AVE SW,seattle,98106.0,WA
7541,2716 ALKI AVE SW,seattle,98116.0,WA
7546,302 NE NORTHGATE WAY,seattle,98125.0,WA
7548,81 YESLER WAY,seattle,98104.0,WA
7559,418 MAYNARD AVE S ,seattle,98104.0,WA
7571,3109 E MADISON ST,seattle,98112.0,WA
7573,85 PIKE ST ,seattle,98101.0,WA
7578,601 S KING ST 20 ,seattle,98104.0,WA
7591,2201 Westlake AVE #101,seattle,98121.0,WA
7605,1307 N 46TH ST ,seattle,98103.0,WA
7611,1918 8TH AVE FL 11,seattle,98101.0,WA
7612,1515 WESTLAKE AVE N ,seattle,98109.0,WA
7622,1319 NE 43RD ST ,seattle,98105.0,WA
7627,550 QUEEN ANNE AVE N ,seattle,98109.0,WA
7630,10406 16TH AVE SW,seattle,98146.0,WA
7633,1301 4TH AVE ,seattle,98101.0,WA
7642,2801 WESTERN AVE #A,seattle,98121.0,WA
7647,400 PINE ST ,seattle,98101.0,WA
7669,12319 ROOSEVELT WAY NE ,seattle,98125.0,WA
7677,4217 UNIVERSITY WAY NE ,seattle,98105.0,WA
7690,4210 E MADISON ST ,seattle,98112.0,WA
7698,3620 STONE WAY N,seattle,98103.0,WA
7699,1518 PIKE PL,seattle,98101.0,WA
7710,2207 1ST AVE ,seattle,98121.0,WA
7729,12543 LAKE CITY WAY NE ,seattle,98125.0,WA
7740,2414 BEACON AVE S ,seattle,98144.0,WA
